; 07 - a curve made of many short lines, as CAM writes splines
; A sine wave 100 mm long, 15 mm amplitude, in 200 segments of about 0.5..1 mm.
; Expect: MoveL x201, sent faster than the robot executes them (the controller's queue fills up and
; the tool waits for it). Motion should be smooth, without stopping at every point.
G21 G90 G17
S6000
G0 X0 Y0 Z5
G1 Z0 F300
G1 X0.500 Y0.942 F1500
G1 X1.000 Y1.880
G1 X1.500 Y2.811
G1 X2.000 Y3.730
G1 X2.500 Y4.635
G1 X3.000 Y5.522
G1 X3.500 Y6.387
G1 X4.000 Y7.226
G1 X4.500 Y8.037
G1 X5.000 Y8.817
G1 X5.500 Y9.561
G1 X6.000 Y10.268
G1 X6.500 Y10.935
G1 X7.000 Y11.558
G1 X7.500 Y12.135
G1 X8.000 Y12.665
G1 X8.500 Y13.145
G1 X9.000 Y13.572
G1 X9.500 Y13.947
G1 X10.000 Y14.266
G1 X10.500 Y14.529
G1 X11.000 Y14.734
G1 X11.500 Y14.882
G1 X12.000 Y14.970
G1 X12.500 Y15.000
G1 X13.000 Y14.970
G1 X13.500 Y14.882
G1 X14.000 Y14.734
G1 X14.500 Y14.529
G1 X15.000 Y14.266
G1 X15.500 Y13.947
G1 X16.000 Y13.572
G1 X16.500 Y13.145
G1 X17.000 Y12.665
G1 X17.500 Y12.135
G1 X18.000 Y11.558
G1 X18.500 Y10.935
G1 X19.000 Y10.268
G1 X19.500 Y9.561
G1 X20.000 Y8.817
G1 X20.500 Y8.037
G1 X21.000 Y7.226
G1 X21.500 Y6.387
G1 X22.000 Y5.522
G1 X22.500 Y4.635
G1 X23.000 Y3.730
G1 X23.500 Y2.811
G1 X24.000 Y1.880
G1 X24.500 Y0.942
G1 X25.000 Y0.000
G1 X25.500 Y-0.942
G1 X26.000 Y-1.880
G1 X26.500 Y-2.811
G1 X27.000 Y-3.730
G1 X27.500 Y-4.635
G1 X28.000 Y-5.522
G1 X28.500 Y-6.387
G1 X29.000 Y-7.226
G1 X29.500 Y-8.037
G1 X30.000 Y-8.817
G1 X30.500 Y-9.561
G1 X31.000 Y-10.268
G1 X31.500 Y-10.935
G1 X32.000 Y-11.558
G1 X32.500 Y-12.135
G1 X33.000 Y-12.665
G1 X33.500 Y-13.145
G1 X34.000 Y-13.572
G1 X34.500 Y-13.947
G1 X35.000 Y-14.266
G1 X35.500 Y-14.529
G1 X36.000 Y-14.734
G1 X36.500 Y-14.882
G1 X37.000 Y-14.970
G1 X37.500 Y-15.000
G1 X38.000 Y-14.970
G1 X38.500 Y-14.882
G1 X39.000 Y-14.734
G1 X39.500 Y-14.529
G1 X40.000 Y-14.266
G1 X40.500 Y-13.947
G1 X41.000 Y-13.572
G1 X41.500 Y-13.145
G1 X42.000 Y-12.665
G1 X42.500 Y-12.135
G1 X43.000 Y-11.558
G1 X43.500 Y-10.935
G1 X44.000 Y-10.268
G1 X44.500 Y-9.561
G1 X45.000 Y-8.817
G1 X45.500 Y-8.037
G1 X46.000 Y-7.226
G1 X46.500 Y-6.387
G1 X47.000 Y-5.522
G1 X47.500 Y-4.635
G1 X48.000 Y-3.730
G1 X48.500 Y-2.811
G1 X49.000 Y-1.880
G1 X49.500 Y-0.942
G1 X50.000 Y-0.000
G1 X50.500 Y0.942
G1 X51.000 Y1.880
G1 X51.500 Y2.811
G1 X52.000 Y3.730
G1 X52.500 Y4.635
G1 X53.000 Y5.522
G1 X53.500 Y6.387
G1 X54.000 Y7.226
G1 X54.500 Y8.037
G1 X55.000 Y8.817
G1 X55.500 Y9.561
G1 X56.000 Y10.268
G1 X56.500 Y10.935
G1 X57.000 Y11.558
G1 X57.500 Y12.135
G1 X58.000 Y12.665
G1 X58.500 Y13.145
G1 X59.000 Y13.572
G1 X59.500 Y13.947
G1 X60.000 Y14.266
G1 X60.500 Y14.529
G1 X61.000 Y14.734
G1 X61.500 Y14.882
G1 X62.000 Y14.970
G1 X62.500 Y15.000
G1 X63.000 Y14.970
G1 X63.500 Y14.882
G1 X64.000 Y14.734
G1 X64.500 Y14.529
G1 X65.000 Y14.266
G1 X65.500 Y13.947
G1 X66.000 Y13.572
G1 X66.500 Y13.145
G1 X67.000 Y12.665
G1 X67.500 Y12.135
G1 X68.000 Y11.558
G1 X68.500 Y10.935
G1 X69.000 Y10.268
G1 X69.500 Y9.561
G1 X70.000 Y8.817
G1 X70.500 Y8.037
G1 X71.000 Y7.226
G1 X71.500 Y6.387
G1 X72.000 Y5.522
G1 X72.500 Y4.635
G1 X73.000 Y3.730
G1 X73.500 Y2.811
G1 X74.000 Y1.880
G1 X74.500 Y0.942
G1 X75.000 Y0.000
G1 X75.500 Y-0.942
G1 X76.000 Y-1.880
G1 X76.500 Y-2.811
G1 X77.000 Y-3.730
G1 X77.500 Y-4.635
G1 X78.000 Y-5.522
G1 X78.500 Y-6.387
G1 X79.000 Y-7.226
G1 X79.500 Y-8.037
G1 X80.000 Y-8.817
G1 X80.500 Y-9.561
G1 X81.000 Y-10.268
G1 X81.500 Y-10.935
G1 X82.000 Y-11.558
G1 X82.500 Y-12.135
G1 X83.000 Y-12.665
G1 X83.500 Y-13.145
G1 X84.000 Y-13.572
G1 X84.500 Y-13.947
G1 X85.000 Y-14.266
G1 X85.500 Y-14.529
G1 X86.000 Y-14.734
G1 X86.500 Y-14.882
G1 X87.000 Y-14.970
G1 X87.500 Y-15.000
G1 X88.000 Y-14.970
G1 X88.500 Y-14.882
G1 X89.000 Y-14.734
G1 X89.500 Y-14.529
G1 X90.000 Y-14.266
G1 X90.500 Y-13.947
G1 X91.000 Y-13.572
G1 X91.500 Y-13.145
G1 X92.000 Y-12.665
G1 X92.500 Y-12.135
G1 X93.000 Y-11.558
G1 X93.500 Y-10.935
G1 X94.000 Y-10.268
G1 X94.500 Y-9.561
G1 X95.000 Y-8.817
G1 X95.500 Y-8.037
G1 X96.000 Y-7.226
G1 X96.500 Y-6.387
G1 X97.000 Y-5.522
G1 X97.500 Y-4.635
G1 X98.000 Y-3.730
G1 X98.500 Y-2.811
G1 X99.000 Y-1.880
G1 X99.500 Y-0.942
G1 X100.000 Y-0.000
G0 Z5
M30
